ORBCOMM FM33            
1 25983U 99065D   26011.53271894  .00001042  00000+0  36804-3 0  9995
2 25983  45.0288  87.9849 0006553  23.9512 336.1642 14.40626858366107
ORBCOMM FM36            
1 25984U 99065E   26011.62637906  .00000946  00000+0  35081-3 0  9994
2 25984  45.0372 182.6206 0002637 253.1106 106.9454 14.38800053364433
ORBCOMM FM35            
1 25985U 99065F   26011.55165043  .00000899  00000+0  34338-3 0  9996
2 25985  45.0374 189.7137 0003154   8.2617 351.8283 14.37702237364769
ORBCOMM FM34            
1 25986U 99065G   26011.58888241  .00000735  00000+0  28961-3 0  9996
2 25986  45.0371 190.0165 0003143 307.4587  52.5975 14.37639056364885
ORBCOMM FM38            
1 33060U 08031A   26011.57385042  .00001853  00000+0  25543-3 0  9996
2 33060  48.4402  41.3979 0005057 228.3702 131.6781 14.82426210945656
ORBCOMM FM41            
1 33061U 08031B   26011.53166304  .00001833  00000+0  25565-3 0  9993
2 33061  48.4436  50.1211 0004145 214.1444 299.2910 14.81972541945123
ORBCOMM FM29            
1 33062U 08031C   26011.63120002  .00001776  00000+0  24763-3 0  9995
2 33062  48.4387  57.1685 0005804 211.2300 290.6338 14.82131676945051
ORBCOMM FM39            
1 33063U 08031D   26011.51003537  .00001559  00000+0  22878-3 0  9990
2 33063  48.4408  84.3952 0006415 179.1285 180.9643 14.80550989944653
